CUTE-1 (CO-55)          
1 27844U 03031E   26198.24363234  .00000130  00000+0  74994-4 0  9995
2 27844  98.6744 206.4251 0010861  97.4238 262.8176 14.24352277195952
CUBESAT XI-IV (CO-57)   
1 27848U 03031J   26197.96606915  .00000108  00000+0  66478-4 0  9996
2 27848  98.6775 205.8397 0010600 114.7088 245.5195 14.23635119195611
CUBESAT XI-V            
1 28895U 05043F   26197.95849457  .00000631  00000+0  10709-3 0  9999
2 28895  98.3017 354.2118 0015311 110.0551 250.2305 14.72704810106132
CUTE-1.7+APD II (CO-65) 
1 32785U 08021C   26198.20938650  .00002230  00000+0  14252-3 0  9998
2 32785  97.8298 180.2615 0006884 291.3226  68.7267 15.09711390989721
CANX-2                  
1 32790U 08021H   26197.92702165  .00001341  00000+0  96949-4 0  9998
2 32790  97.8657 178.2901 0008606 311.2562  48.7922 15.05811785989282
SEEDS II (CO-66)        
1 32791U 08021J   26197.96057869  .00010024  00000+0  31007-3 0  9998
2 32791  97.7526 197.3035 0003273 152.6353 207.5061 15.33703048991855
SWISSCUBE               
1 35932U 09051B   26198.20334655  .00000449  00000+0  98211-4 0  9992
2 35932  98.4005 106.6116 0007938 113.6742 246.5293 14.62532837893543
BEESAT-1                
1 35933U 09051C   26197.68087813  .00000383  00000+0  86615-4 0  9997
2 35933  98.3932 105.6536 0006186 125.9975 234.1800 14.61763234893492
ITUPSAT1                
1 35935U 09051E   26198.17721015  .00000337  00000+0  79459-4 0  9990
2 35935  98.4015 105.3171 0008204 137.6090 222.5745 14.60480346893117
TISAT 1                 
1 36799U 10035E   26198.28752102  .00011210  00000+0  35665-3 0  9998
2 36799  98.0716 147.5354 0004630 116.0733 244.0984 15.32780548872315
STRAND-1                
1 39090U 13009E   26197.43623744  .00000110  00000+0  51462-4 0  9995
2 39090  98.3935  16.9527 0009469 137.7246 222.4672 14.37179260701269
BRITE-AUSTRIA           
1 39091U 13009F   26197.94936880  .00000067  00000+0  37191-4 0  9994
2 39091  98.4010  16.6507 0010857 145.7302 214.4587 14.36552927701322
NEE-01 PEGASO           
1 39151U 13018B   26198.20898061  .00001384  00000+0  13619-3 0  9990
2 39151  98.1260 343.3599 0013652  68.4727 291.7946 14.93794403715188
POPACS 2                
1 39269U 13055E   26197.76037828  .00014928 -92122-6  24345-3 0  9997
2 39269  80.9912 110.3288 0414806  98.8611 265.9796 14.92059367667626
POPACS 3                
1 39270U 13055F   26198.27810831  .00007794  00000+0  18523-3 0  9999
2 39270  80.9999 196.5435 0548517 338.3110  19.5626 14.56694907642933
ZACUBE-1 (TSHEPISOSAT)  
1 39417U 13066B   26197.93417495  .00001271  00000+0  10162-3 0  9990
2 39417  97.8006 160.4171 0044089 149.6523 210.7268 15.01333423685191
WNISAT-1                
1 39423U 13066H   26197.65127390  .00000571  00000+0  11161-3 0  9990
2 39423  97.7237 344.7215 0163959 138.7515 222.6209 14.58121814671021
TRITON-1                
1 39427U 13066M   26198.21117733  .00001007  00000+0  12548-3 0  9992
2 39427  97.8226 107.3325 0090701 135.5895 225.2638 14.81800261678533
GOMX-1                  
1 39430U 13066Q   26198.28197060  .00000646  00000+0  10385-3 0  9999
2 39430  97.6462  36.8453 0128042 341.4939  18.1632 14.69545481674335
CUBEBUG-2 (LO-74)       
1 39440U 13066AA  26198.27147315  .00002015  00000+0  18926-3 0  9998
2 39440  97.8919 147.3840 0055615 288.3376  71.1800 14.93975515681484
NEE-02 KRYSAOR          
1 39441U 13066AB  26198.29430496  .00001069  00000+0  12208-3 0  9991
2 39441  97.8897 137.2978 0065226 332.3487  27.4265 14.86744048680678
FUNCUBE-1 (AO-73)       
1 39444U 13066AE  26197.88324087  .00004077  00000+0  25213-3 0  9998
2 39444  97.8292 169.9592 0037940 102.2043 258.3439 15.09830753684147
UWE-3                   
1 39446U 13066AG  26197.82397772  .00002047  00000+0  17840-3 0  9997
2 39446  97.8716 154.1042 0047570 218.9248 140.8545 14.97205791682019
BRITE-CA1 (TORONTO)     
1 40020U 14033L   26197.93307811  .00000506  00000+0  83590-4 0  9993
2 40020  97.9774 326.3188 0078575 180.6925 179.4187 14.72724463646592
DUCHIFAT-1              
1 40021U 14033M   26197.69874411  .00099153  00000+0  77546-3 0  9991
2 40021  98.0414 261.1627 0002786 236.8489 123.2505 15.71313651660376
NANOSATC-BR1            
1 40024U 14033Q   26198.05591393  .00010197  00000+0  32893-3 0  9997
2 40024  98.0704 233.1102 0005253  91.9307 268.2534 15.32365382658553
QB50P1                  
1 40025U 14033R   26198.00121204  .00004208  00000+0  20647-3 0  9993
2 40025  98.0964 211.2472 0010459 119.5295 240.6982 15.18681576657556
QB50P2                  
1 40032U 14033Y   26198.27700991  .00004006  00000+0  21521-3 0  9994
2 40032  98.0764 197.0406 0009266  78.0159 282.2110 15.15522510657220
PERSEUS-M2              
1 40037U 14033AD  26198.30467780  .00000469  00000+0  47749-4 0  9999
2 40037  97.9986 149.4632 0010986 192.0245 168.0714 14.95593448655285
PERSEUS-M1              
1 40039U 14033AF  26198.27521403  .00000866  00000+0  83148-4 0  9994
2 40039  97.9655 142.9045 0011045 189.2551 170.8468 14.95720181655138
